{"fetched_at":"2026-07-09T18:16:40.685Z","source":"https://celestrak.org/NORAD/elements/gp.php?GROUP=kuiper&FORMAT=JSON","constellation":"kuiper","records":[{"OBJECT_NAME":"KUIPER-00062","OBJECT_ID":"2025-134Y","EPOCH":"2026-07-08T21:59:51.146880","CLASSIFICATION_TYPE":"U","MEAN_MOTION":14.7996242,"ECCENTRICITY":0.00006493,"INCLINATION":51.8959,"RA_OF_ASC_NODE":54.5143,"ARG_OF_PERICENTER":111.6222,"MEAN_ANOMALY":248.4809,"EPHEMERIS_TYPE":0,"NORAD_CAT_ID":64522,"ELEMENT_SET_NO":999,"REV_AT_EPOCH":5806,"BSTAR":0.0013269576,"MEAN_MOTION_DOT":0.00009917,"MEAN_MOTION_DDOT":0},{"OBJECT_NAME":"KUIPER-00063","OBJECT_ID":"2025-134Z","EPOCH":"2026-07-08T20:11:00.525120","CLASSIFICATION_TYPE":"U","MEAN_MOTION":14.7992523,"ECCENTRICITY":0.00007729,"INCLINATION":51.9024,"RA_OF_ASC_NODE":62.3988,"ARG_OF_PERICENTER":106.5424,"MEAN_ANOMALY":253.5623,"EPHEMERIS_TYPE":0,"NORAD_CAT_ID":64523,"ELEMENT_SET_NO":999,"REV_AT_EPOCH":5794,"BSTAR":0.00037214207,"MEAN_MOTION_DOT":0.00002616,"MEAN_MOTION_DDOT":0},{"OBJECT_NAME":"KUIPER-00064","OBJECT_ID":"2025-134AA","EPOCH":"2026-07-08T20:14:52.387296","CLASSIFICATION_TYPE":"U","MEAN_MOTION":14.79929446,"ECCENTRICITY":0.00007251,"INCLINATION":51.9019,"RA_OF_ASC_NODE":59.8114,"ARG_OF_PERICENTER":111.6867,"MEAN_ANOMALY":248.4173,"EPHEMERIS_TYPE":0,"NORAD_CAT_ID":64524,"ELEMENT_SET_NO":999,"REV_AT_EPOCH":5798,"BSTAR":0.00031012563,"MEAN_MOTION_DOT":0.00002144,"MEAN_MOTION_DDOT":0},{"OBJECT_NAME":"KUIPER-00065","OBJECT_ID":"2025-134AB","EPOCH":"2026-07-08T21:44:22.994016","CLASSIFICATION_TYPE":"U","MEAN_MOTION":14.79926571,"ECCENTRICITY":0.00007681,"INCLINATION":51.9026,"RA_OF_ASC_NODE":64.7063,"ARG_OF_PERICENTER":105.1792,"MEAN_ANOMALY":254.9255,"EPHEMERIS_TYPE":0,"NORAD_CAT_ID":64525,"ELEMENT_SET_NO":999,"REV_AT_EPOCH":5790,"BSTAR":0.0003144411,"MEAN_MOTION_DOT":0.00002176,"MEAN_MOTION_DDOT":0},{"OBJECT_NAME":"KUIPER-00066","OBJECT_ID":"2025-134AC","EPOCH":"2026-07-08T17:41:03.834816","CLASSIFICATION_TYPE":"U","MEAN_MOTION":14.79925075,"ECCENTRICITY":0.00006018,"INCLINATION":51.9027,"RA_OF_ASC_NODE":2.7311,"ARG_OF_PERICENTER":107.07,"MEAN_ANOMALY":253.0328,"EPHEMERIS_TYPE":0,"NORAD_CAT_ID":64526,"ELEMENT_SET_NO":999,"REV_AT_EPOCH":5877,"BSTAR":0.00028677742,"MEAN_MOTION_DOT":0.00001965,"MEAN_MOTION_DDOT":0},{"OBJECT_NAME":"KUIPER-00069","OBJECT_ID":"2025-151A","EPOCH":"2026-07-08T22:19:29.273952","CLASSIFICATION_TYPE":"U","MEAN_MOTION":14.79927514,"ECCENTRICITY":0.0000816,"INCLINATION":51.9007,"RA_OF_ASC_NODE":104.5175,"ARG_OF_PERICENTER":93.4895,"MEAN_ANOMALY":266.6161,"EPHEMERIS_TYPE":0,"NORAD_CAT_ID":64816,"ELEMENT_SET_NO":999,"REV_AT_EPOCH":5471,"BSTAR":0.00017172613,"MEAN_MOTION_DOT":0.00001088,"MEAN_MOTION_DDOT":0},{"OBJECT_NAME":"KUIPER-00070","OBJECT_ID":"2025-151B","EPOCH":"2026-07-08T12:45:48.301056","CLASSIFICATION_TYPE":"U","MEAN_MOTION":14.79929773,"ECCENTRICITY":0.00009035,"INCLINATION":51.9001,"RA_OF_ASC_NODE":131.1917,"ARG_OF_PERICENTER":82.247,"MEAN_ANOMALY":277.8594,"EPHEMERIS_TYPE":0,"NORAD_CAT_ID":64817,"ELEMENT_SET_NO":999,"REV_AT_EPOCH":5431,"BSTAR":0.000037838326,"MEAN_MOTION_DOT":6.7e-7,"MEAN_MOTION_DDOT":0},{"OBJECT_NAME":"KUIPER-00071","OBJECT_ID":"2025-151C","EPOCH":"2026-07-08T01:28:54.531264","CLASSIFICATION_TYPE":"U","MEAN_MOTION":14.79922373,"ECCENTRICITY":0.00007876,"INCLINATION":51.9003,"RA_OF_ASC_NODE":130.8071,"ARG_OF_PERICENTER":90.8352,"MEAN_ANOMALY":269.27,"EPHEMERIS_TYPE":0,"NORAD_CAT_ID":64818,"ELEMENT_SET_NO":999,"REV_AT_EPOCH":5309,"BSTAR":0.00028719955,"MEAN_MOTION_DOT":0.00001968,"MEAN_MOTION_DDOT":0},{"OBJECT_NAME":"KUIPER-00072","OBJECT_ID":"2025-151D","EPOCH":"2026-07-08T22:15:34.251264","CLASSIFICATION_TYPE":"U","MEAN_MOTION":14.79910672,"ECCENTRICITY":0.00007443,"INCLINATION":51.8958,"RA_OF_ASC_NODE":106.9263,"ARG_OF_PERICENTER":82.5315,"MEAN_ANOMALY":277.5732,"EPHEMERIS_TYPE":0,"NORAD_CAT_ID":64819,"ELEMENT_SET_NO":999,"REV_AT_EPOCH":5350,"BSTAR":0.00030189752,"MEAN_MOTION_DOT":0.0000208,"MEAN_MOTION_DDOT":0},{"OBJECT_NAME":"KUIPER-00073","OBJECT_ID":"2025-151E","EPOCH":"2026-07-07T05:13:25.761792","CLASSIFICATION_TYPE":"U","MEAN_MOTION":14.79922929,"ECCENTRICITY":0.00008725,"INCLINATION":51.8987,"RA_OF_ASC_NODE":134.5241,"ARG_OF_PERICENTER":85.9974,"MEAN_ANOMALY":274.1088,"EPHEMERIS_TYPE":0,"NORAD_CAT_ID":64820,"ELEMENT_SET_NO":999,"REV_AT_EPOCH":5415,"BSTAR":0.00034503386,"MEAN_MOTION_DOT":0.00002409,"MEAN_MOTION_DDOT":0},{"OBJECT_NAME":"KUIPER-00074","OBJECT_ID":"2025-151F","EPOCH":"2026-07-08T22:00:01.999584","CLASSIFICATION_TYPE":"U","MEAN_MOTION":15.98031005,"ECCENTRICITY":0.00022652,"INCLINATION":51.8775,"RA_OF_ASC_NODE":31.0427,"ARG_OF_PERICENTER":227.3616,"MEAN_ANOMALY":79.1703,"EPHEMERIS_TYPE":0,"NORAD_CAT_ID":64821,"ELEMENT_SET_NO":999,"REV_AT_EPOCH":557,"BSTAR":0.00048775395,"MEAN_MOTION_DOT":0.00226496,"MEAN_MOTION_DDOT":0.000031984346},{"OBJECT_NAME":"KUIPER-00075","OBJECT_ID":"2025-151G","EPOCH":"2026-07-08T17:28:45.250464","CLASSIFICATION_TYPE":"U","MEAN_MOTION":15.45280677,"ECCENTRICITY":0.00031548,"INCLINATION":51.8676,"RA_OF_ASC_NODE":351.0578,"ARG_OF_PERICENTER":352.2176,"MEAN_ANOMALY":7.8765,"EPHEMERIS_TYPE":0,"NORAD_CAT_ID":64822,"ELEMENT_SET_NO":999,"REV_AT_EPOCH":5509,"BSTAR":0.00035415815,"MEAN_MOTION_DOT":0.00016755,"MEAN_MOTION_DDOT":0},{"OBJECT_NAME":"KUIPER-00076","OBJECT_ID":"2025-151H","EPOCH":"2026-07-08T12:16:36.031296","CLASSIFICATION_TYPE":"U","MEAN_MOTION":14.79924024,"ECCENTRICITY":0.00007424,"INCLINATION":51.9005,"RA_OF_ASC_NODE":118.8215,"ARG_OF_PERICENTER":86.476,"MEAN_ANOMALY":273.6288,"EPHEMERIS_TYPE":0,"NORAD_CAT_ID":64823,"ELEMENT_SET_NO":999,"REV_AT_EPOCH":5330,"BSTAR":0.000066282938,"MEAN_MOTION_DOT":0.00000284,"MEAN_MOTION_DDOT":0},{"OBJECT_NAME":"KUIPER-00077","OBJECT_ID":"2025-151J","EPOCH":"2026-07-08T12:08:49.974144","CLASSIFICATION_TYPE":"U","MEAN_MOTION":14.79927916,"ECCENTRICITY":0.00005474,"INCLINATION":51.8993,"RA_OF_ASC_NODE":123.8649,"ARG_OF_PERICENTER":109.2048,"MEAN_ANOMALY":250.8974,"EPHEMERIS_TYPE":0,"NORAD_CAT_ID":64824,"ELEMENT_SET_NO":999,"REV_AT_EPOCH":5323,"BSTAR":-0.00029124604,"MEAN_MOTION_DOT":-0.0000244,"MEAN_MOTION_DDOT":0},{"OBJECT_NAME":"KUIPER-00078","OBJECT_ID":"2025-151K","EPOCH":"2026-07-08T04:55:06.364128","CLASSIFICATION_TYPE":"U","MEAN_MOTION":14.79932937,"ECCENTRICITY":0.00008087,"INCLINATION":51.8993,"RA_OF_ASC_NODE":122.6739,"ARG_OF_PERICENTER":95.397,"MEAN_ANOMALY":264.7085,"EPHEMERIS_TYPE":0,"NORAD_CAT_ID":64825,"ELEMENT_SET_NO":999,"REV_AT_EPOCH":5322,"BSTAR":0.00023700238,"MEAN_MOTION_DOT":0.00001586,"MEAN_MOTION_DDOT":0},{"OBJECT_NAME":"KUIPER-00079","OBJECT_ID":"2025-151L","EPOCH":"2026-07-07T05:17:19.123872","CLASSIFICATION_TYPE":"U","MEAN_MOTION":14.79921572,"ECCENTRICITY":0.00013478,"INCLINATION":51.8964,"RA_OF_ASC_NODE":131.9874,"ARG_OF_PERICENTER":85.1153,"MEAN_ANOMALY":274.9963,"EPHEMERIS_TYPE":0,"NORAD_CAT_ID":64826,"ELEMENT_SET_NO":999,"REV_AT_EPOCH":5420,"BSTAR":-0.000082088018,"MEAN_MOTION_DOT":-0.00000847,"MEAN_MOTION_DDOT":0}]}
