KUIPER-00062            
1 64522U 25134Y   26189.91656420  .00009917  00000+0  13270-2 0  9993
2 64522  51.8959  54.5143 0000649 111.6222 248.4809 14.79962420 58062
KUIPER-00063            
1 64523U 25134Z   26189.84097830  .00002616  00000+0  37214-3 0  9994
2 64523  51.9024  62.3988 0000772 106.5424 253.5623 14.79925230 57940
KUIPER-00064            
1 64524U 25134AA  26189.84366189  .00002144  00000+0  31013-3 0  9998
2 64524  51.9019  59.8114 0000725 111.6867 248.4173 14.79929446 57983
KUIPER-00065            
1 64525U 25134AB  26189.90582169  .00002176  00000+0  31444-3 0  9997
2 64525  51.9026  64.7063 0000768 105.1792 254.9255 14.79926571 57903
KUIPER-00066            
1 64526U 25134AC  26189.73684994  .00001965  00000+0  28678-3 0  9998
2 64526  51.9027   2.7311 0000601 107.0700 253.0328 14.79925075 58774
KUIPER-00069            
1 64816U 25151A   26189.93019993  .00001088  00000+0  17173-3 0  9996
2 64816  51.9007 104.5175 0000816  93.4895 266.6161 14.79927514 54719
KUIPER-00070            
1 64817U 25151B   26189.53180904  .00000067  00000+0  37838-4 0  9991
2 64817  51.9001 131.1917 0000903  82.2470 277.8594 14.79929773 54315
KUIPER-00071            
1 64818U 25151C   26189.06174226  .00001968  00000+0  28720-3 0  9990
2 64818  51.9003 130.8071 0000787  90.8352 269.2700 14.79922373 53096
KUIPER-00072            
1 64819U 25151D   26189.92747976  .00002080  00000+0  30190-3 0  9994
2 64819  51.8958 106.9263 0000744  82.5315 277.5732 14.79910672 53504
KUIPER-00073            
1 64820U 25151E   26188.21765928  .00002409  00000+0  34503-3 0  9991
2 64820  51.8987 134.5241 0000872  85.9974 274.1088 14.79922929 54158
KUIPER-00074            
1 64821U 25151F   26189.91668981  .00226496  31984-4  48775-3 0  9991
2 64821  51.8775  31.0427 0002265 227.3616  79.1703 15.98031005  5571
KUIPER-00075            
1 64822U 25151G   26189.72830151  .00016755  00000+0  35416-3 0  9994
2 64822  51.8676 351.0578 0003154 352.2176   7.8765 15.45280677 55092
KUIPER-00076            
1 64823U 25151H   26189.51152814  .00000284  00000+0  66283-4 0  9992
2 64823  51.9005 118.8215 0000742  86.4760 273.6288 14.79924024 53304
KUIPER-00077            
1 64824U 25151J   26189.50613396 -.00002440  00000+0 -29125-3 0  9990
2 64824  51.8993 123.8649 0000547 109.2048 250.8974 14.79927916 53237
KUIPER-00078            
1 64825U 25151K   26189.20493477  .00001586  00000+0  23700-3 0  9995
2 64825  51.8993 122.6739 0000808  95.3970 264.7085 14.79932937 53229
KUIPER-00079            
1 64826U 25151L   26188.22036023 -.00000847  00000+0 -82088-4 0  9993
2 64826  51.8964 131.9874 0001347  85.1153 274.9963 14.79921572 54200
